NORAD_CAT_ID,OBJECT_NAME,OBJECT_TYPE,EPOCH,MEAN_MOTION,ECCENTRICITY,INCLINATION,RA_OF_ASC_NODE,ARG_OF_PERICENTER,MEAN_ANOMALY,BSTAR,MEAN_MOTION_DOT,MEAN_MOTION_DDOT,TLE_LINE0,TLE_LINE1,TLE_LINE2,SEMIMAJOR_AXIS,PERIOD,APOGEE,PERIGEE,DECAYED
49444.0,STARLINK-3126,PAYLOAD,2023-10-23 20:53:25,15.0884556,0.0001484,53.2157,144.9256,95.8059,264.3103,0.00041964,6.398e-05,0.0,0 STARLINK-3126,1 49444U 21104AN  23296.87043220  .00006398  00000-0  41964-3 0  9994,2 49444  53.2157 144.9256 0001484  95.8059 264.3103 15.08845560108970,6917.863,95.437,540.755,538.702,0.0
49444.0,STARLINK-3126,PAYLOAD,2023-10-24 14:22:39,15.0884507,0.0001509,53.2157,141.6546,98.5038,261.6125,0.00030857,4.627e-05,0.0,0 STARLINK-3126,1 49444U 21104AN  23297.59907346  .00004627  00000-0  30857-3 0  9994,2 49444  53.2157 141.6546 0001509  98.5038 261.6125 15.08845070108016,6917.865,95.437,540.774,538.686,0.0
49444.0,STARLINK-3126,PAYLOAD,2023-10-25 12:38:03,15.08843977,0.0001551,53.2161,137.4918,95.4533,264.6636,6.057e-05,6.76e-06,0.0,0 STARLINK-3126,1 49444U 21104AN  23298.52643069  .00000676  00000-0  60570-4 0  9993,2 49444  53.2161 137.4918 0001551  95.4533 264.6636 15.08843977109228,6917.868,95.437,540.806,538.66,0.0
49444.0,STARLINK-3126,PAYLOAD,2023-10-26 06:07:18,15.08843248,0.0001595,53.2159,134.2207,94.788,265.3294,5.2334e-05,5.45e-06,0.0,0 STARLINK-3126,1 49444U 21104AN  23299.25507045  .00000545  00000-0  52334-4 0  9991,2 49444  53.2159 134.2207 0001595  94.7880 265.3294 15.08843248108268,6917.87,95.437,540.839,538.632,0.0
49444.0,STARLINK-3126,PAYLOAD,2023-10-26 20:25:46,15.08844324,0.0001502,53.2162,131.5448,91.0423,269.0741,8.6534e-05,1.09e-05,0.0,0 STARLINK-3126,1 49444U 21104AN  23299.85123077  .00001090  00000-0  86534-4 0  9991,2 49444  53.2162 131.5448 0001502  91.0423 269.0741 15.08844324108354,6917.867,95.437,540.771,538.693,0.0
49444.0,STARLINK-3126,PAYLOAD,2023-10-26 22:01:09,15.08844879,0.0001488,53.2159,131.2472,89.2414,270.8748,9.4619e-05,1.218e-05,0.0,0 STARLINK-3126,1 49444U 21104AN  23299.91747043  .00001218  00000-0  94619-4 0  9998,2 49444  53.2159 131.2472 0001488  89.2414 270.8748 15.08844879109438,6917.865,95.437,540.76,538.701,0.0
49444.0,STARLINK-3126,PAYLOAD,2023-10-27 12:19:37,15.088486,0.0001493,53.2155,128.5705,83.8419,276.2743,4.802e-05,4.76e-06,0.0,0 STARLINK-3126,1 49444U 21104AN  23300.51362749  .00000476  00000-0  48020-4 0  9993,2 49444  53.2155 128.5705 0001493  83.8419 276.2743 15.08848600108455,6917.854,95.437,540.752,538.686,0.0
49444.0,STARLINK-3126,PAYLOAD,2023-10-27 21:51:56,15.08848051,0.0001477,53.2154,126.786,82.4497,277.6663,0.00017425,2.487e-05,0.0,0 STARLINK-3126,1 49444U 21104AN  23300.91106794  .00002487  00000-0  17425-3 0  9991,2 49444  53.2154 126.7860 0001477  82.4497 277.6663 15.08848051108512,6917.856,95.437,540.743,538.699,0.0
49444.0,STARLINK-3126,PAYLOAD,2023-10-28 12:10:24,15.08841647,0.0001588,53.2152,124.1103,82.1771,277.9401,9.8715e-05,1.283e-05,0.0,0 STARLINK-3126,1 49444U 21104AN  23301.50723148  .00001283  00000-0  98715-4 0  9990,2 49444  53.2152 124.1103 0001588  82.1771 277.9401 15.08841647109672,6917.875,95.437,540.839,538.642,0.0
49444.0,STARLINK-3126,PAYLOAD,2023-10-28 18:31:57,15.08843279,0.0001579,53.2138,122.9194,87.7182,272.3991,0.00012894,1.765e-05,0.0,0 STARLINK-3126,1 49444U 21104AN  23301.77219033  .00001765  00000-0  12894-3 0  9990,2 49444  53.2138 122.9194 0001579  87.7182 272.3991 15.08843279108641,6917.87,95.437,540.828,538.643,0.0
49444.0,STARLINK-3126,PAYLOAD,2023-10-29 05:39:39,15.08845167,0.0001401,53.2151,120.8382,87.6129,272.5023,0.00012052,1.631e-05,0.0,0 STARLINK-3126,1 49444U 21104AN  23302.23586950  .00001631  00000-0  12052-3 0  9995,2 49444  53.2151 120.8382 0001401  87.6129 272.5023 15.08845167108710,6917.865,95.437,540.699,538.76,0.0
49444.0,STARLINK-3126,PAYLOAD,2023-10-29 18:22:44,15.08847833,0.000145,53.2152,118.459,88.3443,271.7715,0.00015397,2.164e-05,0.0,0 STARLINK-3126,1 49444U 21104AN  23302.76578762  .00002164  00000-0  15397-3 0  9992,2 49444  53.2152 118.4590 0001450  88.3443 271.7715 15.08847833109864,6917.856,95.437,540.725,538.718,0.0
49444.0,STARLINK-3126,PAYLOAD,2023-10-29 21:33:30,15.08850278,0.0001481,53.215,117.8639,90.468,269.6481,0.00018518,2.661e-05,0.0,0 STARLINK-3126,1 49444U 21104AN  23302.89826601  .00002661  00000-0  18518-3 0  9994,2 49444  53.2150 117.8639 0001481  90.4680 269.6481 15.08850278108817,6917.849,95.437,540.739,538.689,0.0
49444.0,STARLINK-3126,PAYLOAD,2023-10-30 11:51:59,15.08836316,0.0001258,53.2158,115.1877,93.2977,266.816,7.1601e-05,8.52e-06,0.0,0 STARLINK-3126,1 49444U 21104AN  23303.49443356  .00000852  00000-0  71601-4 0  9996,2 49444  53.2158 115.1877 0001258  93.2977 266.8160 15.08836316109970,6917.892,95.438,540.627,538.886,0.0
49444.0,STARLINK-3126,PAYLOAD,2023-10-30 21:24:17,15.08839811,0.0001395,53.216,113.4038,92.5464,267.5688,0.00010185,1.333e-05,0.0,0 STARLINK-3126,1 49444U 21104AN  23303.89187308  .00001333  00000-0  10185-3 0  9996,2 49444  53.2160 113.4038 0001395  92.5464 267.5688 15.08839811108962,6917.881,95.438,540.711,538.781,0.0
49444.0,STARLINK-3126,PAYLOAD,2023-10-31 14:53:32,15.08839348,0.0001447,53.2161,110.1322,92.9867,267.1291,7.2855e-05,8.72e-06,0.0,0 STARLINK-3126,1 49444U 21104AN  23304.62051440  .00000872  00000-0  72855-4 0  9995,2 49444  53.2161 110.1322 0001447  92.9867 267.1291 15.08839348109076,6917.882,95.438,540.748,538.746,0.0
49444.0,STARLINK-3126,PAYLOAD,2023-10-31 18:04:18,15.08842658,0.0001402,53.2162,109.5386,89.5586,270.5566,0.00012502,1.702e-05,0.0,0 STARLINK-3126,1 49444U 21104AN  23304.75299299  .00001702  00000-0  12502-3 0  9990,2 49444  53.2162 109.5386 0001402  89.5586 270.5566 15.08842658110163,6917.872,95.437,540.707,538.767,0.0
49444.0,STARLINK-3126,PAYLOAD,2023-11-01 11:33:33,15.08836749,0.0001434,53.2164,106.2682,89.4799,270.6358,0.00011031,1.468e-05,0.0,0 STARLINK-3126,1 49444U 21104AN  23305.48163747  .00001468  00000-0  11031-3 0  9994,2 49444  53.2164 106.2682 0001434  89.4799 270.6358 15.08836749110274,6917.89,95.438,540.747,538.763,0.0
49444.0,STARLINK-3126,PAYLOAD,2023-11-01 14:44:20,15.08830195,0.000146,53.2167,105.6733,89.4832,270.6328,0.00026717,3.965e-05,0.0,0 STARLINK-3126,1 49444U 21104AN  23305.61412094  .00003965  00000-0  26717-3 0  9992,2 49444  53.2167 105.6733 0001460  89.4832 270.6328 15.08830195109223,6917.91,95.438,540.785,538.765,0.0
49444.0,STARLINK-3126,PAYLOAD,2023-11-01 17:55:05,15.08837559,0.0001395,53.2167,105.0789,90.4018,269.7134,0.0001059,1.398e-05,0.0,0 STARLINK-3126,1 49444U 21104AN  23305.74659711  .00001398  00000-0  10590-3 0  9995,2 49444  53.2167 105.0789 0001395  90.4018 269.7134 15.08837559109240,6917.888,95.438,540.718,538.788,0.0
49444.0,STARLINK-3126,PAYLOAD,2023-11-02 14:35:06,15.08840855,0.0001283,53.2161,101.2124,87.9912,272.1227,6.1893e-05,6.97e-06,0.0,0 STARLINK-3126,1 49444U 21104AN  23306.60771585  .00000697  00000-0  61893-4 0  9999,2 49444  53.2161 101.2124 0001283  87.9912 272.1227 15.08840855109373,6917.878,95.438,540.63,538.855,0.0
49444.0,STARLINK-3126,PAYLOAD,2023-11-02 17:45:52,15.08845129,0.0001275,53.2162,100.618,88.8371,271.2767,0.00012224,1.658e-05,0.0,0 STARLINK-3126,1 49444U 21104AN  23306.74019361  .00001658  00000-0  12224-3 0  9992,2 49444  53.2162 100.6180 0001275  88.8371 271.2767 15.08845129110469,6917.865,95.437,540.612,538.848,0.0
49444.0,STARLINK-3126,PAYLOAD,2023-11-03 03:18:11,15.08836642,0.000129,53.2162,98.8338,92.9934,267.1206,0.00024826,3.665e-05,0.0,0 STARLINK-3126,1 49444U 21104AN  23307.13763860  .00003665  00000-0  24826-3 0  9997,2 49444  53.2162  98.8338 0001290  92.9934 267.1206 15.08836642110529,6917.891,95.438,540.648,538.863,0.0
49444.0,STARLINK-3126,PAYLOAD,2023-11-03 14:25:53,15.08851672,0.0001306,53.2163,96.7522,83.5109,276.6032,-0.00021079,-3.642e-05,0.0,0 STARLINK-3126,1 49444U 21104AN  23307.60130884 -.00003642  00000-0 -21079-3 0  9997,2 49444  53.2163  96.7522 0001306  83.5109 276.6032 15.08851672109520,6917.845,95.437,540.613,538.806,0.0
49444.0,STARLINK-3126,PAYLOAD,2023-11-03 19:12:02,15.0884949,0.0001231,53.2164,95.86,86.8534,273.2599,0.00018384,2.64e-05,0.0,0 STARLINK-3126,1 49444U 21104AN  23307.80003118  .00002640  00000-0  18384-3 0  9998,2 49444  53.2164  95.8600 0001231  86.8534 273.2599 15.08849490110622,6917.851,95.437,540.568,538.865,0.0
49444.0,STARLINK-3126,PAYLOAD,2023-11-04 03:08:58,15.08837764,0.0001566,53.218,94.3721,84.173,275.944,-6.4227e-05,-1.31e-05,0.0,0 STARLINK-3126,1 49444U 21104AN  23308.13123827 -.00001310  00000-0 -64227-4 0  9998,2 49444  53.2180  94.3721 0001566  84.1730 275.9440 15.08837764110678,6917.887,95.438,540.836,538.669,0.0
49444.0,STARLINK-3126,PAYLOAD,2023-11-04 14:16:41,15.08833455,0.0001813,53.2166,92.2917,86.3723,273.7476,1.6827e-05,-2e-07,0.0,0 STARLINK-3126,1 49444U 21104AN  23308.59492406 -.00000020  00000-0  16827-4 0  9999,2 49444  53.2166  92.2917 0001813  86.3723 273.7476 15.08833455109673,6917.9,95.438,541.02,538.511,0.0
49444.0,STARLINK-3126,PAYLOAD,2023-11-04 17:27:27,15.08835305,0.0001423,53.217,91.697,84.6213,275.4941,-1.9776e-05,-6.03e-06,0.0,0 STARLINK-3126,1 49444U 21104AN  23308.72740289 -.00000603  00000-0 -19776-4 0  9993,2 49444  53.2170  91.6970 0001423  84.6213 275.4941 15.08835305109696,6917.895,95.438,540.744,538.775,0.0
49444.0,STARLINK-3126,PAYLOAD,2023-11-05 09:21:18,15.08850542,0.000139,53.2178,88.723,86.5226,273.5925,0.00029099,4.348e-05,0.0,0 STARLINK-3126,1 49444U 21104AN  23309.38979682  .00004348  00000-0  29099-3 0  9993,2 49444  53.2178  88.7230 0001390  86.5226 273.5925 15.08850542110860,6917.848,95.437,540.675,538.752,0.0
49444.0,STARLINK-3126,PAYLOAD,2023-11-05 14:07:27,15.08859606,0.0001477,53.2174,87.8324,84.3589,275.7572,0.00052788,8.128e-05,0.0,0 STARLINK-3126,1 49444U 21104AN  23309.58851359  .00008128  00000-0  52788-3 0  9996,2 49444  53.2174  87.8324 0001477  84.3589 275.7572 15.08859606109820,6917.82,95.436,540.707,538.664,0.0
